id,name,address,lat,lng,HEX(geom),category_id,recom,description,video_url,created_at,updated_at
B0001,Auditorium Universitas Andalas,Limau Manis,-0.91479873,100.45873528,0xe610000001030000000100000005000000427c0621561d594037be31c77c45edbf437cc6d45a1d5940b71d76faec48edbf427c66b5611d5940c26f04fe9546edbf417c46075d1d59402af2d2fa2243edbf427c0621561d594037be31c77c45edbf,01,1,null,,2023-06-10 14:34:39,2023-06-10 14:34:39
B0002,Baitul Ilmi Mosque,Limau Manis,-0.91111949,100.46141907,0xe6100000010300000001000000070000008479b940871d5940cbfd27bd0c29edbf857939de871d5940279fe11b3429edbf8479997b8a1d5940975570b34a28edbf84799905881d59404d62a3019426edbf8479194c851d594019892c899927edbf8579d9c7851d5940ec822b56f627edbf8479b940871d5940cbfd27bd0c29edbf,01,2,null,,2023-06-10 14:34:39,2023-06-10 14:34:39
B0003,Bank Center,Limau Manis,-0.91817301,100.45836411,0xe610000001030000000100000009000000e21fc43b541d5940e2e0751c9360edbfc46dda1c541d59408ad83d1e5f60edbfc36d5ae7541d594069498dd01860edbfc56d7a03551d5940685fb81f3260edbfc46d7ab7551d5940a4316281ff5fedbfc46dfaf7581d59409b339a4d5962edbfc46dda0b561d5940c3dc2f355963edbfc46ddab4521d5940273040f9f660edbfe21fc43b541d5940e2e0751c9360edbf,01,1,null,,2023-06-10 14:34:39,2023-06-10 14:34:39
B0004,Convention Hall,Limau Manis,-0.91688095,100.45815390,0xe61000000103000000010000000a0000007531b791521d5940e0e701262255edbf7431b7e04e1d59403241515b6856edbf7531b7b34e1d5940d39c328c3558edbf7431b73a4f1d5940a563c587bc58edbf743137a8521d5940e54430450b59edbf7531b761551d594000263f898f58edbf7531b715561d5940644241d0b957edbf753137d2551d59403993e456ef56edbf7531b7ad541d59406ec6bd5fe155edbf7531b791521d5940e0e701262255edbf,01,1,null,,2023-06-10 14:34:39,2023-06-10 14:34:39
B0005,Business Center (BC),Limau Manis,-0.91707990,100.45339016,0xe6100000010300000001000000060000009f858955011d59404bed1460d857edbf9f858955011d59400f0924f19f59edbfa0850966071d5940f2e16a819759edbfa0854944071d5940b0bd5bf0cf57edbf9f85494a011d59403f882c90d557edbf9f858955011d59404bed1460d857edbf,01,2,null,,2023-06-10 14:34:39,2023-06-10 14:34:39
B0006,Rektorat Universitas Andalas,Limau Manis,-0.91529582,100.45798699,0xe6100000010300000001000000170000001e6b69a04c1d594074fd1a29c246edbf1e6b290b4f1d5940731dfd3fef45edbf1e6b09de501d5940f007fcc52147edbf1e6bc9974f1d594094737c91ab47edbf1d6b697e501d594072b82bbd2f48edbf1e6be92c4f1d59405a5d2179ab48edbf1e6b09fd4f1d594006c65ab43d49edbf1e6b290e4c1d594037220e99974aedbf1e6b49bf4d1d59404865214fc74bedbf1e6ba997511d5940b86328da754aedbf1e6b2913561d59402fa0a99ddd4dedbf1e6b09e9541d5940bd8442aa454eedbf1e6b4905531d59400512c125e64cedbf1e6b0938511d5940a7a79c617b4bedbf1e6b69a04c1d594079188fb40a4dedbf1e6b09f24b1d59408c730dd89f4cedbf1f6b293e491d594037220e99974aedbf1e6b49b14c1d59405d9511136549edbf1e6ba9f74b1d5940c43e0738cd48edbf1e6b69fa4c1d5940268f269b6d48edbf1e6b293b4c1d594039e97980ca47edbf1e6b69814d1d59403f04f7a35f47edbf1e6b69a04c1d594074fd1a29c246edbf,01,1,null,,2023-06-10 14:34:39,2023-06-10 14:34:39
B0007,Klinik Medika Andalas,Limau Manis,-0.91981964,100.45536048,0xe6100000010300000001000000050000001b8f4dde221d59407f5e84639e6eedbf1c8f8d24241d5940606d57b62d70edbf1c8f4d62261d594045f0f509c06fedbf1c8f2d0b251d59405f7a8177256eedbf1b8f4dde221d59407f5e84639e6eedbf,01,1,null,,2023-06-10 14:34:39,2023-06-10 14:34:39
B0008,Laboratorium Sentral,Limau Manis,-0.90883523,100.46061253,0xe61000000103000000010000000500000044740522781d594022c2b9cd5715edbfce7acd6a791d59409c0c4c663e16edbfcd7aed377d1d59403dd42be00b15edbfcd7a0dec7b1d59408278ded71c14edbf44740522781d594022c2b9cd5715edbf,01,2,null,,2023-06-10 14:34:39,2023-06-10 14:34:39
B0009,Masjid Adz Zikra Farmasi,Limau Manis,-0.91432790,100.46208996,0xe610000001030000000100000005000000545ab71f921d5940d4315d566641edbf535a1739911d5940e9271d6e6342edbf545a1755931d5940201670d9f242edbf545a778a941d59402d83e132d141edbf545ab71f921d5940d4315d566641edbf,01,2,null,,2023-06-10 14:34:39,2023-06-10 14:34:39
B0010,Masjid Al-Baqoroh,Limau Manis,-0.91263808,100.45915316,0xe61000000103000000010000000600000007fe3cfc611d594018e6795dc533edbf06fedcf3601d59400ec51215c834edbf06fe9c04631d59405cfcde704935edbf07fefc93641d594024244bfdca33edbf07fe1c67621d5940ba7cc3206033edbf07fe3cfc611d594018e6795dc533edbf,01,2,null,,2023-06-10 14:34:39,2023-06-10 14:34:39
B0011,Masjid Al-Kahfi Fakultas Pertanian,Limau Manis,-0.91165416,100.45995734,0xe61000000103000000010000000600000020c3bbaa6d1d5940c2de139f6f2bedbf1fc3db6c6d1d59402a2f3e88422cedbf1fc3fb776f1d5940ab17c1cbc32dedbf1ec3fb74721d5940982f2414c12cedbf1fc39baa6f1d594075578be4c62aedbf20c3bbaa6d1d5940c2de139f6f2bedbf,01,2,null,,2023-06-10 14:34:39,2023-06-10 14:34:39
B0012,Masjid Al-Munir,Limau Manis,-0.91645389,100.46148175,0xe61000000103000000010000000d0000006ae01d31881d5940a841a4eab152edbf6ae01df3891d59409fe6b1e70b53edbf6ae0fdd6891d59407e8b09863e53edbf6ae01d4d8a1d594057be78546e53edbf69e05d2b8a1d59400230a192a653edbf6ae03db5891d5940b6aa934e2254edbf6be0fd9b881d5940d205a14b7c54edbf6ae09d93871d59402ea4ae8f0054edbf6be0ddf8871d59402d3ca608e353edbf6ae09d1a881d5940eed19d81c553edbf6ae05d88871d59400ed05d139053edbf69e06dc3871d594049d967463353edbf6ae01d31881d5940a841a4eab152edbf,01,2,null,,2023-06-10 14:34:39,2023-06-10 14:34:39
B0013,Mesjid Nurul Ilmi,Limau Manis,-0.91749917,100.45738515,0xe61000000103000000010000000d0000006a571989411d5940e34fca81f45cedbf6a57191e431d5940855577be595dedbf6a57b99c421d5940397d4f4ad85dedbf6a579931461d5940e9659193a55eedbf6b57990f4a1d59402ffd04b76d5aedbf6a57b97a461d5940184c7adda859edbf6a57b9f3451d5940874124092d5aedbf104ada45441d59406289ee97d059edbf114a7a6a431d59400a3642efd85aedbf114a7ae3421d59409cd216a0bf5aedbf114adacf411d59401bddeff5f45bedbf114afa45421d5940bcd032750b5cedbf6a571989411d5940e34fca81f45cedbf,01,2,null,,2023-06-10 14:34:39,2023-06-10 14:34:39
B0014,Mushalla Al Iqra,Limau Manis,-0.92106314,100.45518887,0xe610000001030000000100000005000000637dd181201d5940deeeea848d78edbf647d712d201d594060930279f579edbf647dd124231d5940e7a06d47257aedbf637d9173231d59406462b513b278edbf637dd181201d5940deeeea848d78edbf,01,2,null,,2023-06-10 14:34:39,2023-06-10 14:34:39
B0015,Mushalla Ar-Rasyid FISIP Unand,Limau Manis,-0.91725837,100.46040394,0xe61000000103000000010000000600000082f994a4761d594056b0c6d87859edbf82f974d1781d594010a62d85e659edbf83f9f406781d5940c3c4df9ce35aedbf84f9d4fb751d59409514bc6f8c5aedbf84f9b4b2751d5940410d79f0755aedbf82f994a4761d594056b0c6d87859edbf,01,2,null,,2023-06-10 14:34:39,2023-06-10 14:34:39
B0016,Mushalla Fakultas Teknik Unand,Limau Manis,-0.91346005,100.46429667,0xe610000001030000000100000013000000c75974dcb51d5940b060eb29543aedbfc759d44fb51d594086409b33163bedbfc75954c0b51d59408b47f7e2293bedbfc8591488b51d594066ed4f707b3bedbfc759143cb61d5940e7394e5f9a3bedbfc759b414b61d5940afcdee8dc43bedbfc859f400b71d594041ef778cf13bedbfc759f42db71d594016607baeb33bedbfc75954dcb71d59404415ed7ce33bedbfc759142bb81d5940f9c77ed0753bedbfc659946eb81d59408aa509e0833bedbfc759f4c2b81d59404a676cd31b3bedbfc859d479b81d59405badb263133bedbfc759f4c2b81d594019c12c87a83aedbfc75934edb71d5940f6a67428813aedbfc859b46eb61d5940e4d31b9b2f3aedbfc759143cb61d5940460430a96a3aedbfc85914e2b51d594031f5d3f9563aedbfc75974dcb51d5940b060eb29543aedbf,01,2,null,,2023-06-10 14:34:39,2023-06-10 14:34:39
B0017,Mushalla Gedung H,Limau Manis,-0.91337323,100.46267934,0xe610000001030000000100000005000000750a969f9b1d5940befd90b62e3aedbff691b16b9c1d5940ed928f6cd33aedbff79111749d1d5940f454c3ff703aedbff691b1989c1d594023af6d94e139edbf750a969f9b1d5940befd90b62e3aedbf,01,2,null,,2023-06-10 14:34:39,2023-06-10 14:34:39
B0018,Musholla Al-Hakim Fakultas Hukum,Limau Manis,-0.91752196,100.46000887,0xe6100000010300000001000000050000006a00166f6f1d59407e0166de335cedbf6b00366c701d59401baba827015dedbf6b00f622721d59409db675ec6e5cedbf6b003620711d59405a46d4e2ac5bedbf6a00166f6f1d59407e0166de335cedbf,01,2,null,,2023-06-10 14:34:39,2023-06-10 14:34:39
B0019,Perpustakaan Universitas Andalas,Limau Manis,-0.91331326,100.46040809,0xe6100000010300000001000000090000002ff7ef1e721d594064297abb093aedbf7be84331751d59403ec615f93e3cedbf7be803887c1d5940d72bac3dc639edbf7be86358791d594062aac8807a37edbf7be8e317761d594022ae1797a438edbf7be843b8751d59406ad9eb586c38edbf7be8e355741d59404df641c4fb38edbf7be843aa741d5940694f56d23639edbf2ff7ef1e721d594064297abb093aedbf,01,1,null,,2023-06-10 14:34:39,2023-06-10 14:34:39
B0020,Pusat Bahasa Universitas Andalas,Limau Manis,-0.91783162,100.45862180,0xe610000001030000000100000009000000e49b7388561d5940a26f16d6425fedbfe39bb3fb571d594088f1d80c5c60edbfe39b13965d1d594075cfd48c755eedbfe49bb3d95b1d59409930cac5645dedbfe49b53c3591d5940029d8610055eedbfe49bd352591d5940abf70423b95dedbfe49b53a7571d59405c3508fe505eedbfe49b532e581d5940afcf425ba55eedbfe49b7388561d5940a26f16d6425fedbf,01,1,null,,2023-06-10 14:34:39,2023-06-10 14:34:39
B0021,Pusat Kegiatan Mahasiswa,Limau Manis,-0.91705064,100.45500264,0xe610000001030000000100000011000000baf1756c1a1d5940ee32dfe8365aedbfbaf155201d1d5940eb04d8902b5bedbfbaf1f5e71e1d5940e39cea1bda59edbfbaf115501e1d594084197c4daa59edbfb9f175a41e1d5940672e25af7759edbfbaf19582201d5940004c55d9285aedbfbaf17555221d59401e3c5345bb58edbfbaf19509211d5940fefceb984d58edbfbbf1153c231d59400065d4e5c356edbfbaf1b571201d59405e59089ec955edbfb9f1555b1e1d594007ce20515357edbfbbf1b5391c1d5940e4be94778e56edbfbaf1b54a1a1d59409ed23d5ce857edbfbaf155f31c1d59403eb2099fe758edbfbaf1f59e1c1d5940a94a786d1759edbfbbf1d5281c1d59407edcc20ef058edbfbaf1756c1a1d5940ee32dfe8365aedbf,01,1,null,,2023-06-10 14:34:39,2023-06-10 14:34:39
B0022,Rumah Sakit Universitas Andalas,Limau Manis,-0.92091490,100.45702098,0xe61000000103000000010000001d000000300bce48371d59401e97857ca874edbf300bce1b371d59409ad75d058175edbf300b4eb9371d5940b1acfe448c75edbf300bcea2371d5940ea03e2ef2676edbf310b2ef13d1d594084b547ad7576edbf2f0b0ed53d1d5940d41e84072477edbf2f0bae48391d5940a7584899ee76edbf2f0bee26391d5940b6a79001d877edbf300b6e1e3a1d5940086e3141e377edbf2f0bceeb391d5940f08cd258e078edbf300b6eff3a1d5940164c7398eb78edbf310b8eee3a1d59400adfa8f53f79edbf300b2e05391d5940ac2108b63479edbf310beef9381d5940638dcc337879edbf300bce1b371d5940c487d2445979edbf300b4ed8361d5940e55a0169be7aedbf300b8ef0471d594012fda6919c7bedbf300bae39481d5940e711674e1b7aedbf300bae01441d5940ec733dff017aedbf310bae2e441d5940e058ea745679edbf2f0b4e9c451d59403d4473846479edbf300bceb2451d5940e07b5b68ee78edbf300b4e8b471d594067cab4170279edbf300bae85471d5940d50c91d9c978edbf300b4e3f481d5940dc6c6179cf78edbf2f0bee44481d5940d68b4f5ab378edbf300bae93481d59403a26d7b9dd76edbf300b8ed1481d59403837a5957875edbf300bce48371d59401e97857ca874edbf,01,1,null,,2023-06-10 14:34:39,2023-06-10 14:34:39
B0023,Departemen Budidaya Pertanian Fakultas Pertanian,Limau Manis,-0.91200163,100.46021273,0xe6100000010300000001000000090000004b39f58d711d594054fee1443a2eedbf4a399528731d5940da1b71a9ad2dedbf4a391501751d594012be7f1eff2eedbf4b3955c0751d594054668140c12eedbf4a3935b2761d5940659107ea882fedbf4a399525761d594052376388bb2fedbf4b399552761d5940aa114a36fc2fedbf493995bd741d594011848b718e30edbf4b39f58d711d594054fee1443a2eedbf,02,2,null,,2023-06-10 14:34:39,2023-06-10 14:34:39
B0024,Departemen Ilmu Tanah dan Sumberdaya Lahan Fakultas Pertanian,Limau Manis,-0.91237638,100.46047981,0xe610000001030000000100000009000000756293e8751d5940ef625a784d32edbf7662f3ed791d594047c2f153e830edbf756213187b1d5940b468d3acc331edbf75625307791d5940ab5a9ee68232edbf7662f393791d5940a377f762f332edbf75627315781d59405fd5ac8e7733edbf7562f377771d594088d953120733edbf7562d32e771d594017bb52012633edbf756293e8751d5940ef625a784d32edbf,02,2,null,,2023-06-10 14:34:39,2023-06-10 14:34:39
B0025,Departemen Kimia Fakultas Matematika dan Ilmu Pengetahuan Alam,Limau Manis,-0.91122982,100.46187042,0xe6100000010300000001000000120000003490186b891d59409069f78cee29edbf339018ec8f1d59403f7a2d1fbc27edbf339078f1931d5940b837bce97526edbf3390d826951d594091a88b125427edbf339038c7941d59407abd5ca17827edbf33905810951d59403f7a2d1fbc27edbf32909886931d594042e9888a4b28edbf34901816931d594089645b5df427edbf339098b6901d594007b5a0bcbe28edbf34905832911d59409bc2b6b91829edbf3390d8b38f1d59403e132955a529edbf339098218f1d5940d0b287483d29edbf3390d8898c1d594032733e411e2aedbf3490b8218d1d5940e156828d912aedbf3390989d8b1d5940e8dedcf8202bedbf3390580b8b1d594057c4c70ca82aedbf3390b8ab8a1d5940558324bcbb2aedbf3490186b891d59409069f78cee29edbf,02,2,null,,2023-06-10 14:34:39,2023-06-10 14:34:39
B0026,Departemen Sistem Informasi Fakultas Teknologi Informasi,Limau Manis,-0.91549014,100.46055878,0xe61000000103000000010000000e000000759a0304761d59409e1dd321904cedbf759aa355751d594092da51950e4eedbf759a8390781d5940d810a722604eedbf759a43b2781d5940e51cdfb5fd4dedbf769a63417e1d59402a52b216fb4bedbf749ac3037a1d59409c0081cf0349edbf759a8390781d5940a7e75e5b8249edbf759a4393791d59400e9e9274524aedbf759ac3c8781d59405e080032a14aedbf759a234a791d5940a8b9c89e034bedbf759a63367a1d59408a77b9a1a94aedbf759a43dc7b1d59406e1786c7e14bedbf759a430c791d59403dac570fdc4cedbf759a0304761d59409e1dd321904cedbf,02,2,null,,2023-06-10 14:34:39,2023-06-10 14:34:39
B0027,Departemen Teknik Elektro Fakultas Teknik,Limau Manis,-0.91414578,100.46510270,0xe610000001030000000100000017000000e844bcdebf1d5940b2ddf439643fedbfe9443c03c11d594044e5f228833fedbfe9449cb1c11d59408bba25ab3f3fedbfe9449cecc21d5940c9ebe8d31d40edbfe944bc54c21d594001295aa24d40edbfe8445ce1c21d5940f6cae08f9940edbfe944bcbcc31d5940a1dfe4b15b40edbfea441c3ec41d59409f55c95f9c40edbfe9445ca3c41d5940393629317240edbfe8441c6bc41d594009fdb7624240edbfe944bc51c51d5940fe06be95e53fedbfe944bcd8c51d59403ea97916cf3fedbfe8449c70c61d5940a0d015233740edbfe944dcffc91d594092ab40616f40edbfe9443c68c51d5940bfcb3aa31d42edbfe8443ca6c31d59408ca318a96941edbfea445c00c21d5940c54352d31a42edbfe9441c9bc11d5940cc37e104eb41edbfe944bc46c11d59403f7a25840142edbfe944bc92c01d594022cf5a179f41edbfe9445c7cbe1d5940be7e76695e41edbfe8449cfdc01d5940e79d71d24a40edbfe844bcdebf1d5940b2ddf439643fedbf,02,2,null,,2023-06-10 14:34:39,2023-06-10 14:34:39
B0028,Departemen Teknik Industri Fakultas Teknik,Limau Manis,-0.91295840,100.46415546,0xe610000001030000000100000014000000759a43c5b01d5940b2d8b7510735edbf759a4349b41d5940aded24ef6933edbf749a8354b41d5940b8d838ecc333edbf759ac39ab51d5940de67a5658e34edbf769a6354b61d59409000bea66c34edbf759a6324b91d5940dc4537c82b36edbf769a8351b71d59407d9ebfb57736edbf769a6308b71d5940f0883f3d7d37edbf759aa3d5b81d594034ea6c8c9637edbff5962691b21d5940da30f4227f3aedbff596c64db01d594055daa4fb7339edbff696c693b51d5940bab8d97f0637edbff596069fb51d594072b99b555536edbff496c658b41d59406d9318ac8d35edbfc6b3a4c1b41d5940c8e6f3df5735edbfc6b3c456b41d59406a0bdfd11c35edbfc6b3c486b11d5940281ae8466e36edbfc7b3c4a5b01d5940e59a331bea35edbfc6b30492b11d5940c3f2d98d9835edbf759a43c5b01d5940b2d8b7510735edbf,02,2,null,,2023-06-10 14:34:39,2023-06-10 14:34:39
B0029,Departemen Teknik Komputer Fakultas Teknik,Limau Manis,-0.91518421,100.46128079,0xe6100000010300000001000000050000003beb3d5f841d5940872542370649edbf3beb9dee851d59400c951d1b9048edbf3beb7de0861d594077b422d46549edbf3bebbd56851d59405a1ea5b0d049edbf3beb3d5f841d5940872542370649edbf,02,2,null,,2023-06-10 14:34:39,2023-06-10 14:34:39
B0030,Departemen Teknik Mesin Fakultas Teknik,Limau Manis,-0.91416973,100.46427841,0xe610000001030000000100000018000000a1eae695ae1d5940122ecc840242edbfa1eae6bcb41d5940b8bb6496e63fedbfa2eae654b31d59408e9345bef43eedbfa3eae68fb41d59409bfcb47b433fedbfa2eaa638b51d5940b829013fde3eedbfa1eaa646b61d5940c3ffdb97b93fedbfa2ea663bb61d59403b2f7ab50240edbfa1eae67eb61d5940dc3c47334640edbfa2eae6a8b91d59406d49fd1c1c3fedbfa1ea6646ba1d5940523f53998c3fedbfa2eaa605bb1d5940d82e57bb4e3fedbfa2eae689ba1d594008c8e7fdff3eedbfa2eaa6d8ba1d59405379741eef3eedbfa2eaa68cbb1d5940dc929b3a653fedbfa1eaa6e3be1d5940e02682f9863fedbfa3ea66b1b81d59401cb91426db41edbfa2ea6649b71d5940df28aeac1041edbfa2eaa649b31d59406343615ec742edbfa2eaa668b21d594034fe69a24b42edbfa3ea66d6b11d5940435a50616d42edbfa2eae673b21d59401727bf1ebc42edbfa2eae6ecb11d5940cc88767de342edbfa1ea664fb11d5940435a50616d42edbfa1eae695ae1d5940122ecc840242edbf,02,2,null,,2023-06-10 14:34:39,2023-06-10 14:34:39
B0031,Departemen Teknik Pertanian Fakultas Teknik,Limau Manis,-0.91080558,100.45975904,0xe61000000103000000010000001100000080013ebc6f1d5940c8b263c99e28edbf8101bec1711d59407e120980d127edbf80011e006a1d59400d0510b00422edbf81019ea0671d59408732104abe22edbf8001de6d691d59402196551f0a24edbf80011ef2681d5940c46655fd4724edbf8101de216a1d59406dc025154525edbf81019e9d6a1d5940b21226370725edbf3de0c68b6c1d59404b4644357126edbf3ce026ff6b1d594021d6e6639b26edbf3ee046296d1d5940fc16133c8d27edbf3de0c6c66d1d59408c389f6d5d27edbf3de0866f6e1d594036e79d29d927edbf3de086156e1d5940a329cc78f227edbf3de086c96e1d594083ea27f56228edbf3ce0c6016f1d5940c1fc10d64628edbf80013ebc6f1d5940c8b263c99e28edbf,02,2,null,,2023-06-10 14:34:39,2023-06-10 14:34:39
B0032,Departemen Teknik Sipil Fakultas Teknik,Limau Manis,-0.91319737,100.46513585,0xe61000000103000000010000001300000044c4eb0fbe1d594018f1fba49639edbf45c4ebafc31d59404159a0d59637edbf45c4ebafc31d594096919a911238edbf44c46b20c41d59407ed0680f5638edbf44c4abcec61d5940aacbea983137edbf44c4ebbac71d59406148cc13cf37edbf44c46b82cb1d5940c2c16b311838edbf44c42b3fc71d59403f5b13d59339edbf44c40b5ec81d59405e32085e6c3aedbf44c4aba1c61d59405465f23e503aedbf45c46b0fc61d594095324bcca13aedbf44c40badc41d594093f4e263b839edbf44c42b6fc41d59406860e152d739edbf44c46bf3c31d59405142b7258039edbf44c44be8c11d5940d2f3cde1353aedbf44c4cba4c11d594027b8a0921c3aedbf44c4ab2ec11d594034c2e300523aedbf43c42b91c01d5940226830d5cd39edbf44c4eb0fbe1d594018f1fba49639edbf,02,2,null,,2023-06-10 14:34:39,2023-06-10 14:34:39
B0033,Fakultas Ekonomi dan Bisnis,Limau Manis,-0.91346040,100.45852401,0xe61000000103000000010000000b0000007194b7aa551d5940f8b7223acf3aedbf71947780561d59406ad854bc8b3aedbf719497c9561d5940ea9aad49dd3aedbf7194d74a591d594066fab8c0043aedbf7194773f5b1d594095183004863bedbf7194d7585a1d59409c1ba0c1d43bedbf7194f739591d59401048aa271b3bedbf719457f9571d59406a88a3e3963bedbf7194776f581d59404e8813a1e53bedbf7294b76c571d594091ed3edf1d3cedbf7194b7aa551d5940f8b7223acf3aedbf,02,2,null,,2023-06-10 14:34:39,2023-06-10 14:34:39
B0034,Fakultas Ekonomi dan Bisnis,Limau Manis,-0.91383659,100.45805410,0xe610000001030000000100000023000000769a034a4e1d5940b291f54db33dedbf759ac35d4d1d59401efcef1a103eedbf769a63094d1d59401f280b6dcf3dedbf753a058d4b1d594038d5e5405a3eedbf743a85d04b1d5940c026866f843eedbf753ae59d4b1d59406a22b3be9d3eedbf753ae5ab4c1d5940ff5903086b3fedbf753a45d34c1d59408669d6b8513fedbf753ac5514e1d594076e3db4f6540edbf753a65fa501d59407b2d1ebe9a40edbf753a4519521d5940107cc8412a40edbf753a0568521d5940b1be3b213b40edbf763ac51e541d594075da1616a63fedbf753a05fd531d594091ede9c68c3fedbf753a2581551d594083904fcb053fedbf743a45f7551d594041676486b13dedbf763a859a541d59402619e8feab3cedbf753a25cd541d59404b01bbaf923cedbf753a45db531d5940147cc515d93bedbf753ac597531d594057e838f5e93bedbf753a0549531d5940cf7c0db7b13bedbf753a4592511d594019fd79523e3cedbf763a05e1511d5940cac5bcc0733cedbf753a450b511d59408be1cebdcd3cedbf753a8524521d5940753f6697923dedbf743a8505531d594020db3c6a3b3dedbf753ae567541d5940812a2cd1513eedbf753a45cd521d594009a3f52cd33eedbf753a6535521d59400163ce105d3eedbf753a858f501d5940530d3aace93eedbf763ae53d511d5940a8b44998623fedbf753ac5e64f1d5940c1af70b4d83fedbf763a65844e1d5940b2150d5dd03eedbf753aa5434f1d5940ef7cccff7b3eedbf769a034a4e1d5940b291f54db33dedbf,02,2,null,,2023-06-10 14:34:39,2023-06-10 14:34:39
B0035,Fakultas Farmasi,Limau Manis,-0.91500813,100.46205766,0xe6100000010300000001000000090000007044aed38b1d594044bf14fb2948edbf6f44ce0b8e1d5940f38ab3924047edbf6e44be498d1d59407f436baece46edbf7044f6b58e1d594048ef36bf3b46edbf704472668f1d59402189d471a346edbf7044aeca941d59403d35d1d89a44edbf6e44eee0981d5940410ad0e4ff46edbf6f44ae65901d59404e0a4d64e34aedbf7044aed38b1d594044bf14fb2948edbf,02,2,null,,2023-06-10 14:34:39,2023-06-10 14:34:39
B0036,Fakultas Hukum,Limau Manis,-0.91690975,100.45977938,0xe61000000103000000010000000b000000df45b2e76a1d5940036bec11be56edbfdf4532476d1d5940c579bef8ed55edbfdf45b2e46d1d594095ebc7e46656edbfdf4552906d1d59406bf5db038356edbfdf4552256f1d5940dbb21209cc57edbfdf45d26b6c1d59401eac5341b858edbfdf45d2b76b1d5940c6117ab53958edbfdf4592e76c1d5940dbb21209cc57edbfdf4572ea6b1d59400973286f1257edbfde4532856b1d59407a3e0d2e3457edbfdf45b2e76a1d5940036bec11be56edbf,02,2,null,,2023-06-10 14:34:39,2023-06-10 14:34:39
B0037,Fakultas Ilmu Budaya,Limau Manis,-0.91635571,100.46053732,0xe61000000103000000010000000b000000759a83257a1d5940f19b88d95f51edbf769a232e771d5940c5d6f8606552edbf759aa306791d594052cf06179553edbf749ac39b781d5940b4ead094d853edbf759a4339791d59409554de913254edbf759ae3b47b1d594017aa3c995153edbf759a43fb7a1d5940ff5e8d5cec52edbf759a43747a1d5940e55343bb1353edbf759aa38d791d594027d59db15152edbf749aa3c87a1d5940675649240052edbf759a83257a1d5940f19b88d95f51edbf,02,2,null,,2023-06-10 14:34:39,2023-06-10 14:34:39
B0038,Fakultas Ilmu Sosial dan Ilmu Politik,Limau Manis,-0.91655187,100.46026499,0xe61000000103000000010000000b000000b5998cea721d5940404f823ce353edbfb5998c8d751d594009eac8130553edbfb599ac30761d59407b415d0f8c53edbfb4992cc0751d594007d8b4adbe53edbfb5990c0c771d594015977ee4d754edbfb599ec4c741d59409e1fc11cc455edbfb4996c82731d594092ea9f004e55edbfb599ecd3741d594015977ee4d754edbfb6998cf8731d594024e1be993754edbfb699ac8d731d5940ff6316386a54edbfb5998cea721d5940404f823ce353edbf,02,2,null,,2023-06-10 14:34:39,2023-06-10 14:34:39
B0039,Fakultas Kedokteran,Limau Manis,-0.91907412,100.45722496,0xe610000001030000000100000022000000759a2337411d5940ee3dce15c366edbf759a23be411d594022f31ea31467edbf749aa30f431d594011fd06987f66edbf749a4350441d5940116949179666edbf759aa32b451d59402322d3013c67edbf759ae317461d5940f740f453fb66edbf759a1315461d5940eaf9b1af7c67edbf759a6b0d501d59408e319a5a1768edbf769a17ad4f1d5940eaae3cc68e69edbf759a2d314c1d594046c7d5435e69edbf769a38814b1d59407f0a24923a6bedbf761a3e0d491d594002b41da3fe6aedbf75dac0f7481d59408cddaf393569edbf743a826e471d59404fa41d9e2069edbf75ea2269471d5940bde0a0165768edbf7642732b461d5940b2e48c8f5768edbf759ac374451d5940491e0c6d986bedbf749a6399441d59407d7daed10b6bedbf759a0364431d5940a786e8a49c6bedbf749a6323421d594060b62f35946bedbf759a4326411d594081c7eedae56aedbf749aa33f401d5940810127383a6bedbf755ae0d8401d594026ce97b05768edbf761a9d6c3f1d5940f6a2afd13968edbf759a964d3f1d5940e562d5ccd368edbf759a09913d1d594087c3fbce9f68edbf769a6f2b3d1d5940336020015f6aedbf769abb873a1d59402e3d8a842c6aedbf759ad3c93a1d5940b7857b167668edbf759a834b361d59404c40515f3e68edbf759a636a371d59405d388139cc66edbf759a031b411d59400c2023843267edbf759a2337411d5940ee3dce15c366edbf759a2337411d5940ee3dce15c366edbf,02,2,null,,2023-06-10 14:34:39,2023-06-10 14:34:39
B0040,Fakultas Keperawatan,Limau Manis,-0.91964025,100.45965101,0xe610000001030000000100000005000000766233de671d594080ecdb23eb6cedbf75629305681d59402a0522568b6eedbf7562f3f96d1d59406a028116806eedbf7562f3cc6d1d5940e7158274d76cedbf766233de671d594080ecdb23eb6cedbf,02,2,null,,2023-06-10 14:34:39,2023-06-10 14:34:39
B0041,Fakultas Keperawatan,Limau Manis,-0.91964138,100.45965030,0xe61000000103000000010000000d000000ea3868d8671d5940f15600a0dc6cedbfe938885c691d5940f320b90fe56cedbfea38e856691d5940af03b4fe036dedbfea38c8376c1d5940bb469cce066dedbfea38882c6c1d5940fb63a1dfe76cedbfea38c8cc6d1d59406ad02f00d76cedbfe938c8f96d1d5940c57fe711886eedbfea3888596c1d5940077d46d27c6eedbfea3888596c1d59407ef533b3606eedbfea384851691d594016770453666eedbfea380846691d59404741a081906eedbfea386805681d59407a00b8b18d6eedbfea3868d8671d5940f15600a0dc6cedbf,02,2,null,,2023-06-10 14:34:39,2023-06-10 14:34:39
B0042,Fakultas Kesehatan Masyarakat,Limau Manis,-0.91088353,100.46176397,0xe61000000103000000010000000d000000ed04f93b891d5940cc7cbbde0f27edbfed04f92a8b1d59400be95f846126edbfed04798d8a1d594027a80308f125edbfee0439178c1d5940312f906c6425edbfee04d9a38c1d5940ff92ece8d425edbfed0459308f1d5940b789d62fff24edbfed0459d68e1d5940b064e1389c24edbfed04596b901d59408139566d1224edbfed04f9ca901d59408f57ca2a6124edbfed04f9f7901d5940859984ab4a24edbfed04f9d8911d59403018b2833c25edbfed0419398a1d594015d116fdd727edbfed04f93b891d5940cc7cbbde0f27edbf,02,2,null,,2023-06-10 14:34:39,2023-06-10 14:34:39
B0043,Fakultas Matematika dan Ilmu Pengetahuan,Limau Manis,-0.91200816,100.46159218,0xe61000000103000000010000000b0000007462f3468a1d5940b1a0f4868b30edbf756233c88c1d59408fbc295ead2fedbf7662731f8c1d59401ccecfe13c2fedbf756253a98b1d59405df2ced05b2fedbf756219b78a1d5940e0ce4abcb22eedbf75e29af08b1d594035ac42c9472eedbf75629c518b1d5940997cc6f6cb2dedbf75629fab881d5940cab94d62b22eedbf7562ab348a1d594028461ca4ec2fedbf756203a1891d5940d08e83da1d30edbf7462f3468a1d5940b1a0f4868b30edbf,02,2,null,,2023-06-10 14:34:39,2023-06-10 14:34:39
B0044,Fakultas Pertanian,Limau Manis,-0.91202438,100.46104308,0xe61000000103000000010000000b000000756293df7e1d5940ab6645e30f2fedbf756273777f1d594093cb6feea42fedbf746213e5801d59403e417332292fedbf756273ed811d59408e4e3f6ce82fedbf75627393811d59402045b23a1830edbf75621320821d59402eb43a178330edbf75621396841d59400e26871ea22fedbf7562f3f2831d5940e1da1572342fedbf76629371831d5940bd3ea070612fedbf766213c6811d594086de4b6b182eedbf756293df7e1d5940ab6645e30f2fedbf,02,2,null,,2023-06-10 14:34:39,2023-06-10 14:34:39
B0045,Fakultas Peternakan,Limau Manis,-0.91203895,100.45925665,0xe610000001030000000100000011000000376970a8671d5940c344a43abd32edbf3769f0f9681d5940d8d7791e4732edbf376910bc681d5940de7a1e801432edbf3769109d691d59400f9721b3b731edbf3869d0b0681d5940b54e5679f830edbf376950e6671d5940ef410ec73e31edbf3869f0cf651d59401fbeeb43b22fedbf3769706d661d5940edcabe057a2fedbf3769d086651d59404af24f8caf2eedbf3769909a641d5940db818eaee52eedbf36697035621d5940805db1dd122dedbf376910ef621d5940e36e27f0c62cedbf376950ec611d594028bdb6651b2cedbf37695038611d59401cc7cc73562cedbf3769f0e3601d59407c6a59a5262cedbf3869f04e5f1d594087723f31a52cedbf376970a8671d5940c344a43abd32edbf,02,2,null,,2023-06-10 14:34:39,2023-06-10 14:34:39
B0046,Fakultas Peternakan,Limau Manis,-0.91267053,100.45968491,0xe61000000103000000010000000b000000dbd48ec3681d5940c6ab93f35a34edbfdbd44e99691d59407a1096151d34edbfdad46ee2691d5940c6ab93f35a34edbfdbd40e5e6c1d59407987843a8533edbfdbd4ee306e1d5940434fbcfeef34edbfdcd40e6c6d1d594024a3734c3635edbfdbd4ce7f6c1d59401c3e91d19834edbfdad44e016b1d594049835d2d1a35edbfdbd4ee606b1d5940046dfd4a6335edbfdad48e856a1d59408e4b9d68ac35edbfdbd48ec3681d5940c6ab93f35a34edbf,02,2,null,,2023-06-10 14:34:39,2023-06-10 14:34:39
B0047,Fakultas Peternakan,Limau Manis,-0.91279274,100.45933183,0xe6100000010300000001000000070000007462f32c681d5940ef8461a74436edbf746233ef651d5940b4b42f275e34edbf7462b335631d59408ef36b2f4d35edbf7562b343641d59401b6dc0781a36edbf7562f32f651d5940ec5dc4abbd35edbf756273ae661d5940bc51b812d436edbf7462f32c681d5940ef8461a74436edbf,02,2,null,,2023-06-10 14:34:39,2023-06-10 14:34:39
B0048,Fakultas Teknik,Limau Manis,-0.91368081,100.46565038,0xe6100000010300000001000000130000001b43500acc1d59403e4cd2981d3bedbf1a43906ccf1d59400d8713f6713bedbf1a43d01dcf1d594046d625f3cb3bedbf1a4390c6cf1d5940f94299d2dc3bedbf1a439012cf1d5940c54dd3ebac3cedbf1943f039cf1d59409f6fa48bb23cedbf1943f0dfce1d59404c0c67a3af3dedbf1a4390e5ce1d5940ff40736d663eedbf1a439031ce1d59403d5e17be523eedbf1a43905ece1d59407be3867ba13eedbf1a43f0a7ca1d59403d5e17be523eedbf1a43f00fcc1d5940912a3843b53dedbf1a43102ccc1d5940b17bc885663dedbf1a4390c9cc1d59400ce468b4903dedbf1b437007cd1d594056f80c057d3dedbf1a43d05bcd1d59406bfaa7ad743cedbf19437080cc1d5940d4b5056e693cedbf1b4370adcc1d5940091b8091fe3bedbf1b43500acc1d59403e4cd2981d3bedbf,02,2,null,,2023-06-10 14:34:39,2023-06-10 14:34:39
B0049,Fakultas Teknologi Informasi,Limau Manis,-0.91535620,100.46099530,0xe6100000010300000001000000090000002dbd1adc7d1d5940c5774f421d4bedbf2ebd5a4f7f1d5940928a89e69b4aedbf2dbd9aa67e1d59400651070a314aedbf2cbd5a7c7f1d5940e84e821ce549edbf2dbdba2a801d59405a9a04f94f4aedbf2cbdbafa821d5940499202515b49edbf2cbdba08841d594048a6ae6bfe49edbf2ebd5af57e1d594028ac3edcd64bedbf2dbd1adc7d1d5940c5774f421d4bedbf,02,2,null,,2023-06-10 14:34:39,2023-06-10 14:34:39
B0050,Fakultas Teknologi Pertanian,Limau Manis,-0.91236253,100.46082076,0xe61000000103000000010000000c0000004c721bef7b1d5940fc59f3334431edbf4c727b517d1d5940c2d018fb5432edbf4c72db6a7c1d5940abb15b58a932edbf4c725b627d1d59409c4126926833edbf4b72fb487e1d5940ef649da41c33edbf4c727bb97e1d59407283b2b25733edbf4b729b3d801d594074bce556d632edbf4d72fbdd7f1d594046aa16d99232edbf4c727b21801d5940e55f00ba7632edbf4c727b137f1d594001693580b731edbf4b721b847d1d594075b25438bd30edbf4c721bef7b1d5940fc59f3334431edbf,02,2,null,,2023-06-10 14:34:39,2023-06-10 14:34:39
B0051,Gedung Botani Fakultas Matematika dan Ilmu Pengetahuan Alam,Limau Manis,-0.90970143,100.46165566,0xe61000000103000000010000000d000000e143eb80871d5940b625023fe21cedbfe143cb078a1d5940c3c94446011cedbfe2434bf1891d59404e514457e21bedbfe043cbc98b1d5940009d2a7c4a1bedbfe1432bf18b1d59408d59429b661bedbfe1436b728e1d5940b64084a2851aedbfe2436b07901d5940a6ce71d99e1bedbfe1434ba28d1d5940a338e952691cedbfe1434bfc8d1d594079bc0150c31cedbfe1434b0d8c1d5940de98d589821dedbfe043cb6f8b1d5940682e1a4d1d1dedbfe0432b21891d59400c4291b5061eedbfe143eb80871d5940b625023fe21cedbf,02,2,null,,2023-06-10 14:34:39,2023-06-10 14:34:39
B0052,Gedung E Fakultas Kedokteran,Limau Manis,-0.91932207,100.45627636,0xe61000000103000000010000000500000089842172301d594020b82db5e76aedbf8884612e341d59408cefaf116c69edbf898461d1361d5940e694d7f14c6bedbf8a84a185331d59405afa9a25c06cedbf89842172301d594020b82db5e76aedbf,02,2,null,,2023-06-10 14:34:39,2023-06-10 14:34:39
B0053,Gedung Serba Guna Fakultas Hukum,Limau Manis,-0.91776847,100.46033187,0xe6100000010300000001000000050000002a133ef2721d5940142a043aac5dedbf2b137efa751d59405b869ab2a65cedbf2b135e35791d59409f95a30d255fedbf2b139e43761d594099ade0451160edbf2a133ef2721d5940142a043aac5dedbf,02,2,null,,2023-06-10 14:34:39,2023-06-10 14:34:39
B0054,JAKP Laboratorium AP Fakultas Ilmu Sosial dan Ilmu Politik,Limau Manis,-0.91739403,100.46067679,0xe61000000103000000010000000b000000759a83af771d594000f686e9745bedbf769a2396781d5940b849b613265cedbf759a2377791d594000377bb6d15bedbf759ae3a67a1d5940d510baeebd5cedbf759a83c57f1d59403e61ddbdf05aedbf749a23ea7e1d5940f8bfa9825e5aedbf759ae3847e1d59404c4c8e41805aedbf759ac3e17d1d59402c7c2795125aedbf759ac35a7d1d5940dbb66603485aedbf759ae3c27c1d594061771787d759edbf759a83af771d594000f686e9745bedbf,02,2,null,,2023-06-10 14:34:39,2023-06-10 14:34:39
B0055,Laboratorium Fakultas Matematika dan Ilmu Pengetahuan Alam,Limau Manis,-0.91093128,100.46091023,0xe61000000103000000010000000e000000b1cfbc95841d5940553b0ab05b2bedbfb1cffce9861d59403d368206942aedbfb0cfdcac7a1d5940631b07035721edbfb2cf3c31781d594043af644c2422edbfb2cfdc8d7b1d5940dca84cc89124edbfb2cfbcea7a1d59403c429236c724edbf5b6ec23c7c1d5940b6ccadc8bf25edbf5c6e42da7c1d59405351685a8a25edbf5c6e820f801d5940baf033951928edbf5c6e228e7f1d5940ee431c543b28edbf5b6e42b8801d59409dc5bb0b3e29edbf5c6ec255811d5940ce53a5fd0229edbfabea768c841d5940d0d37cd2482bedbfb1cfbc95841d5940553b0ab05b2bedbf,02,2,null,,2023-06-10 14:34:39,2023-06-10 14:34:39
B0056,Laboratorium Fakultas Pertanian ,Limau Manis,-0.91215803,100.45987900,0xe6100000010300000001000000120000007662f3e86f1d5940d4c3cac68432edbf75621321721d594011ec451dbd31edbf7562b3946d1d5940c52c600a3c2eedbf7462932f6b1d59409786a0230c2fedbf766293b66b1d5940d09d86c06b2fedbf756233626b1d59405fb03f1f932fedbf7562f3dd6b1d5940b299df2bfb2fedbf756213546c1d59409b350f9dd62fedbf756213356d1d5940961f67f78430edbf756233f76c1d5940762d66e6a330edbf7462337e6d1d5940f2c1bf621431edbf7562b3c16d1d5940ad74efd3ef30edbf7562736a6e1d5940fb0c8ecf7631edbf756293d26d1d5940fe62a3ddb131edbf7562930d6f1d5940fc476d069032edbf756273a56f1d59400a36e3076332edbf756293c16f1d5940c281f9267f32edbf7662f3e86f1d5940d4c3cac68432edbf,02,2,null,,2023-06-10 14:34:39,2023-06-10 14:34:39
B0057,Laboratorium Mikrobiologi Fakultas Matematika dan Ilmu Pengetahuan Alam,Limau Manis,-0.91052254,100.46111016,0xe610000001030000000100000015000000765f057a851d5940930fc5164326edbf775f2585871d5940ece9f4dc8325edbf775f6563871d594048ac234e5f25edbf775f8506881d594037b80c402425edbf775f65dc861d5940080c82a73d24edbf765fe53e861d5940cdaec7157324edbf775f05d7821d5940c437c87ae921edbf775f257a831d5940079d89efb221edbf765f651d821d594052bd8877bb20edbf775fc590811d5940de87b7b5f320edbf765fa5df7f1d594078da1220b31fedbf765fe5a17d1d5940cb6f88997d20edbf765fe5637f1d5940e0af89ded121edbf775fa52b7f1d5940ccd1e68de521edbf775f456c801d594081b17226cc22edbf765fa593801d594090f58967aa22edbf785f650c841d5940b60c71d23625edbf775fe5c8831d59400809ce814a25edbf765f45fe841d5940ac3a6f394d26edbf785f253c851d594054c2867a2b26edbf765f057a851d5940930fc5164326edbf,02,2,null,,2023-06-10 14:34:39,2023-06-10 14:34:39
B0058,Laboratorium Struktur Perkembangan Tumbuhan FMIPA,Limau Manis,-0.91009768,100.46131130,0xe61000000103000000010000000900000074623355871d59400f5d5692b021edbf756273a9891d59407d248469d220edbf766273ea841d5940c4fb36c6591dedbf75623396821d5940029fad3f241eedbf74627363841d5940fba4b084781fedbf746273af831d59404e190e23ab1fedbf7562f300851d5940a94cf86aa520edbf74625382851d594094bae05c6a20edbf74623355871d59400f5d5692b021edbf,02,2,null,,2023-06-10 14:34:39,2023-06-10 14:34:39
B0059,Laboratorium Teknologi dan Rekayasa Proses Hasil Pertanian Fakultas Teknologi Pertanian,Limau Manis,-0.91094113,100.45936200,0xe61000000103000000010000000700000075627327661d594076ba652c3428edbf756273d8691d5940d6e9ae66f626edbf7562d3d5661d59409d1dcad9a724edbf7562f389651d5940ea1df8f51d25edbf7562330e651d59401d45e1f8c324edbf75625387621d5940ac20e0819c25edbf75627327661d594076ba652c3428edbf,02,2,null,,2023-06-10 14:34:39,2023-06-10 14:34:39
B0060,Mabes Fakultas Ilmu Sosial dan Ilmu Politik,Limau Manis,-0.91706715,100.46057223,0xe61000000103000000010000000700000010d83512771d59401feb844b0c59edbf0fd8354a7b1d59400f1ec536b557edbf10d8b5f57c1d59404ea6885ced58edbf10d8959e7b1d59400abeef085b59edbf0fd875747a1d5940b37321b07f58edbf11d8d59e771d59402e858d378559edbf10d83512771d59401feb844b0c59edbf,02,2,null,,2023-06-10 14:34:39,2023-06-10 14:34:39
B0061,Pascasarjana Fakultas Ekonomi dan Bisnis,Limau Manis,-0.91418761,100.45760478,0xe610000001030000000100000019000000759a834a461d59400cec682dc43dedbf769a0315471d5940c3fe76085c3eedbf759aa339461d5940a982e6c5aa3eedbf759ac3dc461d59406b075472183fedbf769a03c9471d5940beee2a45c13eedbf769aa363491d5940291e755beb3fedbf759a632b491d59407963e83afc3fedbf759ae36e491d5940be60e6291b40edbf749a83a1491d5940ad05a2aa0440edbf759ae3034b1d5940f187efe2f040edbf749a63c04a1d594068c362c20141edbf759a23e24a1d5940173849812341edbf769ac3144b1d5940af601c320a41edbf759ae3984c1d59408a934d183742edbf759a035b4c1d594065f133d75842edbf759ae3f24c1d59409f652da4b542edbf759aa3414d1d5940702d45c0a242edbf769a23934e1d594069b106e98043edbf759ae3114c1d5940b6a383924844edbf749aa382481d59409b29b2f7be41edbf759a63f0471d5940ab295226e941edbf759ac3af461d5940dfb3edbdff40edbf749a0342471d594072c22040bc40edbf87bdfc37441d5940ae867127713eedbf759a834a461d59400cec682dc43dedbf,02,2,null,,2023-06-10 14:34:39,2023-06-10 14:34:39
B0062,Pascasarjana,Limau Manis,-0.91560747,100.46124341,0xe610000001030000000100000005000000769a0390801d59403dac570fdc4cedbf749a03e4861d594000552c81ba4aedbf769a2376891d5940d7b719b2874cedbf759a63d3821d59402db1e790954eedbf769a0390801d59403dac570fdc4cedbf,02,2,null,,2023-06-10 14:34:39,2023-06-10 14:34:39
B0063,Peternakan Convention Center Fakultas Peternakan,Limau Manis,-0.91245624,100.45882755,0xe61000000103000000010000000b000000d41bda68591d5940f998de29f634edbfd41b7ab75b1d5940d53872b02b34edbfd41bfa545c1d5940197428ed9034edbfd41b5a3e5e1d5940e0baba62e533edbfd41bdacd5d1d59408dd6a6658b33edbfd51b5a5a601d59407b2b0c9da732edbfd31b5ae1601d59402efd4efafb32edbfd51b3ae1621d5940a79d9bf03932edbfd41bba08611d5940c0861cadb830edbfd31b3afb571d5940398db9510434edbfd41bda68591d5940f998de29f634edbf,02,2,null,,2023-06-10 14:34:39,2023-06-10 14:34:39
B0064,Prodi Psikologi Fakultas Kedokteran,Limau Manis,-0.91962803,100.45677317,0xe610000001030000000100000012000000910fa73e381d5940314372d9266cedbf900f67c23f1d594016b275c59f6cedbf900f67873e1d59408c0b1af1236dedbf900f67873e1d59408366c32d896dedbf900f27a93e1d5940c8b9ed7ca26dedbf8f0fe7ca3e1d5940a062e35ae06dedbf900f87a33e1d59402775c619026eedbf900fc7543e1d59403644c108216eedbf8f0f33433e1d5940646d813a656eedbf900fc9153f1d594027071daf086fedbf8f0fb4c8371d59404c87729fa36eedbf918fc9e6381d594095d60b0b096eedbf904f9410391d594079e60721b66dedbf90ff06c1381d5940b600da8e976dedbf90af39ed381d5940596c575e466dedbf900f1f2f391d594077b2def82a6dedbf8f0ff738391d5940bbeaf9c3cc6cedbf910fa73e381d5940314372d9266cedbf,02,2,null,,2023-06-10 14:34:39,2023-06-10 14:34:39
B0065,Pusat Botani Sumatera Fakultas Matematika,Limau Manis,-0.90968823,100.46072717,0xe6100000010300000001000000090000001ea90f9c791d59400977cef3241bedbf1ea94f967b1d5940b599f9b9651aedbf1ea92f697d1d5940d8ac162fb71bedbf1da98fea7d1d59401301d0c0811bedbf1fa9af607e1d59408bd85caecd1bedbf1ea92ff07d1d5940eddc2e3df21bedbf1fa98f7f7f1d594010bba772381dedbf1ea92f697d1d59403220c13cef1dedbf1ea90f9c791d59400977cef3241bedbf,02,2,null,,2023-06-10 14:34:39,2023-06-10 14:34:39
B0066,Pusat Studi Humaniora Fakultas Ilmu Budaya,Limau Manis,-0.91654073,100.46105699,0xe61000000103000000010000000b0000009a75cc007c1d59402ab4d5541d55edbf9c75cc957d1d5940843540cb4156edbf9b75cccd811d594016926da8af54edbf9b756c0e831d594004949fd26055edbf9a758ce9871d5940c3347100bb53edbf9c756cbf861d59408428a0a7df52edbf9b75ecb6871d59402ae87a7a8852edbf9b754cc2851d5940b59c0bac5852edbf9b758c68811d5940e7d46defd953edbf9b758ce1801d59400a6405436c53edbf9a75cc007c1d59402ab4d5541d55edbf,02,2,null,,2023-06-10 14:34:39,2023-06-10 14:34:39
B0067,Pusat Studi Konstitusi Fakultas Hukum,Limau Manis,-0.91732717,100.45996929,0xe61000000103000000010000000a0000001b310ceb6b1d59406c266d24975aedbf1b31acfe6c1d594009c465cc8b5bedbf1b316c3f6c1d5940e6ab2e4acf5bedbf1c310cf96c1d5940ea7d75a47d5cedbf1b31eca9721d59403f79cff56c5aedbf1b310c20731d594026127d32d25aedbf1a310c5b741d594006ecea364b5aedbf1c31ac71721d5940e0aa9af02359edbf1b316cd1701d594052a1cd61ff58edbf1b310ceb6b1d59406c266d24975aedbf,02,2,null,,2023-06-10 14:34:39,2023-06-10 14:34:39
B0068,S2 Ilmu Hama dan Penyakit Tumbuhan Fakultas Pertanian,Limau Manis,-0.91173962,100.46037789,0xe61000000103000000010000000d0000007462f30c791d594089c72b331a2fedbf7462d3857a1d5940f0798c37932eedbf76627372751d5940b4356ac9bb2aedbf756233d2731d5940f356f394452bedbf7562f320741d594091d5da42862bedbf7662d323731d5940775136d0d72bedbf74625348741d5940111b4989ad2cedbf7562d312751d5940fe70d6cb5e2cedbfc77b7a75771d59400f2f5562272eedbfc87b3ab6761d5940e6ea24e06a2eedbfc87bfab8771d59406be29359352fedbfc87bdaaa781d5940e25b50fce02eedbf7462f30c791d594089c72b331a2fedbf,02,2,null,,2023-06-10 14:34:39,2023-06-10 14:34:39
B0069,S3 Ilmu Pertanian Fakultas Pertanian ,Limau Manis,-0.91112952,100.46048184,0xe6100000010300000001000000110000008430db9a7c1d594017811771742cedbf83303bde7e1d594072a83207b82bedbf8330dbb67e1d5940f5ef1be89b2bedbf8330bb4e7f1d5940abc291fa4f2bedbf83307b087e1d5940ec9adb016f2aedbf8230db7b7d1d5940f7ca7d30992aedbf83307bfd791d5940b7aa12a51d28edbf8230dbab7a1d59409f987087d427edbf8330db70791d5940a9ffcfbef026edbf84305bd3781d59402fea438d2027edbfa882651f771d594072d6a308c125edbfa8826579771d5940d67c180a9425edbfa982653e761d59407e4f48f29624edbfa882e5a0751d59409479bcc0c624edbfa882e50b741d5940f45960bb7d23edbfa982e5c2711d5940b7f2bc044b24edbf8430db9a7c1d594017811771742cedbf,02,2,null,,2023-06-10 14:34:39,2023-06-10 14:34:39
B0070,Sekretariat HMAP Fakultas Ilmu Sosial dan Ilmu Politik,Limau Manis,-0.91694145,100.46040845,0xe610000001030000000100000009000000eb7205a4731d59401603ed336757edbfe972e5ef741d5940d83d850a8658edbfe972052b741d5940ae0bad48be58edbfea72a5e4741d5940220c28144859edbfe97205067b1d59409fd695953457edbfe97245d6791d59409e16de6c5656edbfe972457c791d594045267c9b8056edbfea72e5a0781d5940b570a520e355edbfeb7205a4731d59401603ed336757edbf,02,2,null,,2023-06-10 14:34:39,2023-06-10 14:34:39
B0071,Gedung A,Limau Manis,-0.91376783,100.45957046,0xe6100000010300000001000000110000008b63f5b3621d5940892b02984540edbf896355b9661d5940e10dfc64a240edbf8a63158f671d5940a9987935a83eedbf8a6355e6661d594007b91d86943eedbf8a63950d691d5940ae9611bcdd3dedbf8a63d59f691d5940924d7f684b3eedbf8b63357b6a1d5940cb47f87aff3dedbf8a63d5cc691d59408a7e8ace913dedbf8b63d57d6d1d5940cf7a9c785c3cedbf8b63b5e86d1d59403bff2155c73cedbf8a63d5e56e1d59404f6b54d7833cedbf8a63153d6e1d594025b3fd5a133cedbf8b637580701d5940351a7db14b3bedbf8b6355836f1d59403451cda7893aedbf8a631592641d59400b6a5008513eedbf8b63f567631d59409e14dd28403eedbf8b63f5b3621d5940892b02984540edbf,03,2,null,,2023-06-10 14:34:39,2023-06-10 14:34:39
B0072,Gedung B,Limau Manis,-0.91286646,100.46098716,0xe61000000103000000010000000d000000c9596b8f831d59407fe92d0bb134edbfc959ab97861d5940270cffa8e036edbfca594b08851d5940de7484746a37edbfca59abb9821d594064b06802bf35edbfc9594b0e7f1d5940c277b7070837edbfc9598b927e1d5940e93aba29ca36edbfca596b007c1d594053970c62b637edbfc959eb087b1d59408c74a1e8eb36edbfc959cbbc7d1d5940ce51c28f1036edbfc9598b0b7e1d59402d72eecd4836edbfc9592b68811d5940d3b457272735edbfc9596ba0811d594049f283655f35edbfc9596b8f831d59407fe92d0bb134edbf,03,2,null,,2023-06-10 14:34:39,2023-06-10 14:34:39
B0073,Gedung Business Center (BC) Universitas Andalas,Limau Manis,-0.91707990,100.45339016,0xe6100000010300000001000000060000009f858955011d59404bed1460d857edbf9f858955011d59400f0924f19f59edbfa0850966071d5940f2e16a819759edbfa0854944071d5940b0bd5bf0cf57edbf9f85494a011d59403f882c90d557edbf9f858955011d59404bed1460d857edbf,01,2,null,,2023-06-10 14:34:39,2023-06-10 14:34:39
B0074,Gedung C,Limau Manis,-0.91276957,100.46198940,0xe61000000103000000010000000d000000cc79c949951d5940192641711432edbfcc79a900951d5940584bd5d3b133edbfcd7909af951d594092718aff3534edbfcc796901891d5940a18abd9f0838edbfcc7949208a1d59403575e399bc38edbfcb79a98d8f1d594047eb9ce9d836edbfcc7929fe8f1d594017f3de462d37edbfcc7989a6961d59405ca9e059e434edbfcb7909dc951d59408b3e89ee5434edbfcb79a92a981d59403d6f6f9c9534edbfcd798976991d59406af9502aea32edbfcc7969a6981d5940892fca5e6032edbfcc79c949951d5940192641711432edbf,03,2,null,,2023-06-10 14:34:39,2023-06-10 14:34:39
B0075,Gedung D,Limau Manis,-0.91354659,100.46144843,0xe610000001030000000100000010000000750a36798b1d594063eba1a2a73aedbf3ca532868b1d594063590576a23aedbf3ca5127b891d5940ff4abc921b39edbf3ca5b218881d5940984387ee9c39edbf3ca592458a1d5940988070004e3bedbf3ca5d272861d59409b13ea65913cedbf3ca572d2861d5940a1e75923e03cedbf3da55240841d59409fccd9cca73dedbf78d9e821851d594052583588703eedbf79d968db871d5940dfc2888f8f3dedbfcf21297b871d594098ffc32b3b3dedbfce2129d28a1d59409e26a5642a3cedbfcf21a98e8a1d5940e2309156ef3bedbfce21a97d8c1d594043053ceb5f3bedbfcd2189808b1d5940e26c5d81a33aedbf750a36798b1d594063eba1a2a73aedbf,03,2,null,,2023-06-10 14:34:39,2023-06-10 14:34:39
B0076,Gedung E,Limau Manis,-0.91548766,100.46055828,0xe61000000103000000010000000e00000022ad9e8b781d5940621cae698849edbf22ad1e0a7a1d59401e432e9efe48edbf22adde367e1d59402cc75cd4144cedbf22ad3ebe781d5940e4e27454fb4dedbf22ad5e80781d5940776354f15a4eedbf22adfe5b751d5940f7d242e31f4eedbf6fb14700761d5940d3e168c08d4cedbf6eb18708791d59407470edadd94cedbf6fb167e97b1d5940478fc0b6cb4bedbf6eb147387a1d594011394f40a74aedbf70b16746791d59408a01766dfe4aedbf6fb127b4781d59402ae0f390934aedbf6fb1e7b6791d5940a57db5333f4aedbf22ad9e8b781d5940621cae698849edbf,03,2,null,,2023-06-10 14:34:39,2023-06-10 14:34:39
B0077,Gedung F,Limau Manis,-0.91448235,100.46047936,0xe61000000103000000010000001900000072eed878771d5940a6b8d818b248edbf71eed83a791d5940a025ce3d1a48edbf71ee5865741d594047f0c978df44edbf72ee5838741d5940c7bb121ab844edbf72eeb8e6741d5940416ae8db7f44edbf73ee9870741d5940fbe2a87e2b44edbf72eef8bb7d1d5940dd0c5729f940edbf72eed8be7c1d59400dfa1cff4740edbf72eed8347f1d594072bd769d7a40edbf72ee7848801d59400cd37cd01d40edbf72ee78a2801d5940336e674d913eedbf72ee388c7c1d594028029ce02e3eedbf72ee18e97b1d5940dfb7a91f3740edbf72ee388c7c1d5940d7e34b5f4240edbf71eeb824731d59401a42b4d39043edbf72ee98bf701d5940c9d75a355e43edbf72ee585a701d59400848a45c6944edbf72ee381f711d5940b7f79a18e544edbf72eef8a8721d5940bbfad0ee1b45edbf72ee38b4721d59401cdfc2453c45edbf96c0b7df741d594055562e7be546edbf97c0970f741d5940b6dab3683147edbf96c09796741d5940724eac358e47edbf98c07788751d5940a8590f184547edbf72eed878771d5940a6b8d818b248edbf,03,2,null,,2023-06-10 14:34:39,2023-06-10 14:34:39
B0078,Gedung Futsal Universitas Andalas,Limau Manis,-0.90759073,100.46063305,0xe610000001030000000100000008000000e813168d771d5940764633ad390aedbfea133603781d59405d709629aa0aedbfe81336d6771d5940c355c678c30aedbfe813f6137a1d5940d40f80ca7f0cedbfea13168a7a1d59402d343f07e50cedbfe913f6787e1d59405454fe72770bedbfe913166b7b1d5940f773ae661209edbfe813168d771d5940764633ad390aedbf,05,2,null,,2023-06-10 14:34:39,2023-06-10 14:34:39
B0079,Gedung G,Limau Manis,-0.91319078,100.46238131,0xe610000001030000000100000012000000f04342349a1d5940a14d3f743a35edbff043429f981d594040f46890b035edbff04342ad991d5940824ad3f89936edbfef43c23c991d594038252e97cc36edbfef4382129a1d59406b590e018937edbff043e2939a1d59407b2e11234b37edbff04322269b1d5940dee2220fc437edbff04322f99a1d5940d35bd5296738edbfef43c2f9901d594072aa314cf63bedbff0430240921d5940f3f2cc477d3cedbff043e2289c1d594083029f740739edbff043e2099d1d5940a7b6e3f31d39edbff043e2179e1d5940f2248c77ad38edbff043c2559e1d5940a68e93cc1238edbff04302ad9d1d59401d3feb388d37edbfef4362f39c1d5940b037fe2d6c37edbfef4322bb9c1d5940336257b34237edbff04342349a1d5940a14d3f743a35edbf,03,2,null,,2023-06-10 14:34:39,2023-06-10 14:34:39
B0080,Gedung H,Limau Manis,-0.91351570,100.46253987,0xe61000000103000000010000000900000048ba3e29951d59402410703e793cedbf47babec6951d594004a3ab682a3dedbf5880423f9c1d59404c17be58f93aedbf5780822b9d1d5940ab425632be3bedbf5780824a9c1d5940c317f54f073cedbf588042f39c1d5940691f925c6f3cedbf578062589f1d594029f9b3f2b23bedbf578002bb9c1d5940a21fe421e039edbf48ba3e29951d59402410703e793cedbf,03,2,null,,2023-06-10 14:34:39,2023-06-10 14:34:39
B0081,Gedung I,Limau Manis,-0.91205969,100.46249559,0xe610000001030000000100000011000000452e8638961d5940507916278b2fedbf452ea681961d5940b6cf13f4e72fedbf452e6649961d594022f95873fe2fedbf452ec6f7961d5940feec3dff7c30edbf452ea635971d59400a8127e06030edbf442ec6ab971d59404d4f0d7dc030edbf452e66a0991d594036219ef21430edbf452e2668991d59404a22c90e8b30edbf452ee63d9a1d5940eef5ab784731edbf452e26849b1d594061f6aa676631edbf442e46819c1d594023660a4a1d31edbf452ea6d59c1d59403fb7b2ef6e30edbf462ea6c79b1d5940b53dfee5ac2fedbf452ec6d59a1d5940c9c4e7c6902fedbf452ea6d59c1d5940e60bec1bf62eedbf452ee61e9b1d5940b9f4ad35c92dedbf452e8638961d5940507916278b2fedbf,03,2,null,,2023-06-10 14:34:39,2023-06-10 14:34:39
B0082,Gedung J,Limau Manis,-0.91259978,100.46153015,0xe61000000103000000010000000b00000035737691851d59406a925c7cc634edbf35737626871d59406e8ef322e835edbf367316da8d1d59408f8068269133edbf347376b88b1d5940e65a5ec22032edbf357336f98a1d5940951f16106732edbf3673967a8b1d5940aca286bcd432edbf357336b0881d59408374f224be33edbf35735618881d59404628c7f76633edbf3573769f861d5940ca0265f3ed33edbf3573361b871d5940bbea03005634edbf35737691851d59406a925c7cc634edbf,03,2,null,,2023-06-10 14:34:39,2023-06-10 14:34:39
B0083,Asrama Hijau Universitas Andalas,Limau Manis,-0.91771051,100.45362526,0xe61000000103000000010000000d000000276b3270071d5940ed3ab6c7d65bedbf286bf2a2051d59408da8568f745fedbf286b1273061d5940efc781de8d5fedbf276b7240061d5940b08f16ebf55fedbf296b32f7071d5940ba6684b92560edbf286bb20d081d5940cc7ea40be55fedbf286bd2dd081d5940c3e7febaf85fedbf286b92c10a1d5940b9ab363a425cedbf286b32130a1d594013e369ab1d5cedbf286b522f0a1d5940223f130deb5bedbf286bb23a081d59407b3e911f9f5bedbf296b1208081d594064b9b44cf65bedbf276b3270071d5940ed3ab6c7d65bedbf,04,2,null,,2023-06-10 14:34:39,2023-06-10 14:34:39
B0084,Asrama Menpera,Limau Manis,-0.91647069,100.45341076,0xe6100000010300000001000000130000002930697d021d5940d3f172985e52edbf96738e92021d5940af95ea3f9052edbf97734e5a021d5940f0b9744f9e52edbf9773ce32041d59401b4e9f820e56edbf9773ae9d041d5940ba7dcee20856edbf96734ed0041d59404077dbdf6256edbf9873cea8061d5940e6bd11621f56edbf97736e81061d5940951fed34c855edbf9673ce2f071d594091439285b455edbf97734e92061d5940987496ddbf54edbf97738eca061d59403436dd6db754edbf97738e8f051d59401b46c5123952edbf98730e1f051d5940867cf3b95d51edbf96732e87041d59409faa7dc96b51edbf9773ee4e041d594081b16fcc1151edbf9773ae81021d594012df80da4c51edbf9773eeb9021d5940013b77a7a951edbf97734e2d021d59402a883017b251edbf2930697d021d5940d3f172985e52edbf,04,2,null,,2023-06-10 14:34:39,2023-06-10 14:34:39
B0085,Asrama Orange,Limau Manis,-0.91771141,100.45317100,0xe6100000010300000001000000190000003d24ae2e001d59400cb80d80e45bedbf3e24cef0ff1c5940f61d701b715cedbf3e246e6fff1c59400eebfd3b605cedbf3e246e34fe1c5940c412d836e45eedbf3d240e94fe1c5940cbe01ab6fa5eedbf3e248e50fe1c5940e191f241795fedbf3e244e53ff1c594043b11d91925fedbf3e24ae20ff1c5940746ff92df25fedbf3d24ee0c001d594089e7c5bc1660edbf3e248e3f001d5940e0d80150b45fedbf3e246e31011d59404aa5fd3ed35fedbf3e248e7a011d59409971c7f25f5fedbf3e240eeb011d59407ad568326b5fedbf3f24ae77021d59402675e469875eedbf3e24ceed021d59402a396e79955eedbf3f24ae2b031d594090b3372d225eedbf3e244eaa021d5940cbdaf4ad0b5eedbf3f246e4d031d59407c59d6c7de5cedbf3e246ec6021d594097874cb8d05cedbf3e242e15031d5940cc59a38c4c5cedbf3d248e01021d5940b84ea79d2d5cedbf3e240e45021d59409b04fa60c85bedbf3e242e53011d5940660db7e1b15bedbf3e248e20011d59406326f23e065cedbf3d24ae2e001d59400cb80d80e45bedbf,04,2,null,,2023-06-10 14:34:39,2023-06-10 14:34:39
B0086,Asrama Roesma M. Sjaaf,Limau Manis,-0.91646265,100.45301784,0xe61000000103000000010000000d000000740a7614fc1c5940b4409b6fff51edbf750af657fc1c5940eee62f6b8652edbf750ab6f2fb1c5940c0e68a1a9a52edbf750a1628fd1c5940b9c514552955edbf760a3671fd1c59401bf343b52355edbf740a16affd1c59402c0436719f55edbf750a167f001d594052b6f9134b55edbf740ad646001d59402e7b7d48c154edbf750a568a001d5940d1d2db08b654edbf750a9687ff1c5940a0dc68fe2352edbf740af627ff1c59409103f30d3252edbf760a16eafe1c5940fd901782b351edbf740a7614fc1c5940b4409b6fff51edbf,04,2,null,,2023-06-10 14:34:39,2023-06-10 14:34:39
B0087,Asrama RPX,Limau Manis,-0.91647975,100.45441105,0xe61000000103000000010000000b000000fc5503c9131d59406aa1f9aeea55edbffb55c3f8141d5940393911dfe755edbffb55430f151d5940872704e28d55edbffb554396151d5940872704e28d55edbffa5503b8151d594097954bb9af54edbffb5543f0151d59405982c1a9a154edbffb55235b161d594060b86f02b051edbffc552320151d594060b86f02b051edbf7cee48e1141d59405e27d967f352edbf7beee832141d59405e27d967f352edbffc5503c9131d59406aa1f9aeea55edbf,04,2,null,,2023-06-10 14:34:39,2023-06-10 14:34:39
B0088,Asrama Rusunawa,Limau Manis,-0.91639009,100.45412935,0xe6100000010300000001000000070000004b9219310f1d5940d49b87abad50edbf4c9299930e1d5940b864dac44a55edbf4b92d9c8111d5940e38d78f37455edbf4b927955121d594019e8f368fc50edbf4b92b906121d5940deb66959ee50edbf4a92590c121d59404dcf11bbbb50edbf4b9219310f1d5940d49b87abad50edbf,04,2,null,,2023-06-10 14:34:39,2023-06-10 14:34:39
B0089,Asrama,Limau Manis,-0.91769298,100.45405047,0xe610000001030000000100000009000000c88aa7670e1d59404a6ec3761d5cedbfc88a67d50d1d59409c869bcc525dedbfc88aa7590d1d5940f6cdca2c4d5dedbfc78a47050d1d59401cb07358d15dedbfc88ac7a20d1d59405d30ce07e55dedbfc88ac7ee0c1d5940bd9a4aae065fedbfc88ac7eb0f1d5940016c6ddb5d5fedbfc88aa764111d5940c53f8cf4605cedbfc88aa7670e1d59404a6ec3761d5cedbf,04,2,null,,2023-06-10 14:34:39,2023-06-10 14:34:39
B0090,Lapangan Badminton FK Unand,Limau Manis,-0.91962649,100.45677448,0xe61000000103000000010000001100000005f43817381d59406746505d286cedbf05f41836391d5940856607a8c86cedbf05f43825391d5940eb233af43b6dedbf06f4d8d0381d59401c1999b4306dedbf05f4f8bf381d594050c36c40af6dedbf05f47803391d59404b8925b0b76dedbf05f4f8ec381d5940c43a5d0d0c6eedbf04f4b8a6371d5940d9e9b9a8986eedbf06f418303f1d59401e304bb5006fedbf06f418223e1d5940285e650a666eedbf05f498383e1d59405535bccd006eedbf05f438983e1d59405535bccd006eedbf04f418a93e1d594018e4d011856dedbf06f4386b3e1d5940f5a1e841826dedbf06f4187c3e1d59403c8827d51f6dedbf05f458ef3f1d59406d2d83a99b6cedbf05f43817381d59406746505d286cedbf,05,2,null,,2023-06-10 14:34:39,2023-06-10 14:34:39
B0091,Lapangan Latihan Kebugaran Unand,Limau Manis,-0.91840415,100.45524110,0xe61000000103000000010000000600000076aa216b1e1d59407f03d8745763edbf76aa819d221d59408c459e728165edbf76aa41f7261d59401875feb28f63edbf76aae110221d59406acf44c3a061edbf77aae15f1e1d59407f03d8745763edbf76aa216b1e1d59407f03d8745763edbf,05,2,null,,2023-06-10 14:34:39,2023-06-10 14:34:39
B0092,Lapangan Basket FISIP,Limau Manis,-0.91727994,100.45951136,0xe6100000010300000001000000050000003c658729661d5940e11830c1b959edbf3b65c7aa681d5940e2164d60bc5bedbf3b65271b6b1d594086782147ec5aedbff5079560681d594014df7587fa58edbf3c658729661d5940e11830c1b959edbf,05,2,null,,2023-06-10 14:34:39,2023-06-10 14:34:39
B0093,Lapangan Tenis,Limau Manis,-0.91653651,100.45490345,0xe6100000010300000001000000050000004825fb851a1d5940055a3c6bdc52edbf4825db691a1d59406d43a753ac55edbf4825dbdc1f1d59409ccf34749b55edbf47259bd11f1d594021c7243bdf52edbf4825fb851a1d5940055a3c6bdc52edbf,05,2,null,,2023-06-10 14:34:39,2023-06-10 14:34:39
B0094,Lapangan Basket,Limau Manis,-0.91652528,100.45536290,0xe610000001030000000100000005000000b849fe39231d5940da252ca51a53edbfb849de77231d59400ec1bf124d55edbfb849de1a261d5940461c1ed34155edbfb749fedc251d5940a105a2950c53edbfb849fe39231d5940da252ca51a53edbf,05,2,null,,2023-06-10 14:34:39,2023-06-10 14:34:39
B0095,Lapangan Sepak Bola,Limau Manis,-0.91618761,100.45898391,0xe6100000010300000001000000050000003476881d571d5940823fea4c4151edbf357608a75c1d59403441ff088a55edbf337688de681d59404f7bcf0b6351edbf3476c849631d59404fb3374e474dedbf3476881d571d5940823fea4c4151edbf,05,2,null,,2023-06-10 14:34:39,2023-06-10 14:34:39
B0096,Lapangan Bulu Tangkis,Limau Manis,-0.91616168,100.45535354,0xe610000001030000000100000007000000d1e810ff221d5940cdb85be24850edbfd1e8004b231d5940296bf9713d52edbfd1e8708e241d5940c5436f622f52edbfd1e85007261d5940c5436f622f52edbfce59d3d8251d5940bbb974cb1b51edbf5121b29b251d5940846776232750edbfd1e810ff221d5940cdb85be24850edbf,05,2,null,,2023-06-10 14:34:39,2023-06-10 14:34:39
B0097,Lapangan Basket FTI,Limau Manis,-0.91513051,100.46086019,0xe610000001030000000100000006000000dfc288be7c1d5940df49f526fc48edbf994128c77d1d5940d64163f9a449edbf9841d8427f1d59402efb29be1249edbf9941e8b8801d5940cdf44b329448edbf9941c88e7f1d594066665b98da47edbfdfc288be7c1d5940df49f526fc48edbf,05,2,null,,2023-06-10 14:34:39,2023-06-10 14:34:39
B0098,Lapangan Basket Fakultas Teknik,Limau Manis,-0.91272728,100.46532837,0xe6100000010300000001000000050000003064c458c71d59406e8c33c2b833edbf3064c41dc61d594059d260fe1a36edbf30648488c81d5940aa2de9eb6636edbf306484c3c91d5940e5afd3df0134edbf3064c458c71d59406e8c33c2b833edbf,05,2,null,,2023-06-10 14:34:39,2023-06-10 14:34:39
B0099,Gedung Futsal Unand,Limau Manis,-0.90759073,100.46063305,0xe610000001030000000100000008000000e813168d771d5940764633ad390aedbfea133603781d59405d709629aa0aedbfe81336d6771d5940c355c678c30aedbfe813f6137a1d5940d40f80ca7f0cedbfea13168a7a1d59402d343f07e50cedbfe913f6787e1d59405454fe72770bedbfe913166b7b1d5940f773ae661209edbfe813168d771d5940764633ad390aedbf,05,2,null,,2023-06-10 14:34:39,2023-06-10 14:34:39
